{
  "type": "FeatureCollection",
  "features": [
    {
      "type": "Feature",
      "properties": {
        "norad_id": 30646,
        "name": "FENGYUN 1C DEB",
        "group": "fengyun-1c-debris",
        "lat": -43.4769509160606,
        "lon": 29.445114236582132,
        "alt_km": 838.8455045498367,
        "timestamp": "2025-12-27T03:58:44.429200+00:00",
        "meta_object_name": "FENGYUN 1C DEB",
        "meta_object_id": "1999-025APD",
        "meta_epoch": "2025-12-26T00:55:50.582496",
        "meta_mean_motion": 14.0968279,
        "meta_eccentricity": 0.00475979,
        "meta_inclination": 98.6513,
        "meta_ra_of_asc_node": 20.0617,
        "meta_arg_of_pericenter": 354.3672,
        "meta_mean_anomaly": 5.6958,
        "meta_ephemeris_type": 0,
        "meta_classification_type": "U",
        "meta_norad_cat_id": 30646,
        "meta_element_set_no": 999,
        "meta_rev_at_epoch": 96792,
        "meta_bstar": 0.00061536683,
        "meta_mean_motion_dot": 1.048e-05,
        "meta_mean_motion_ddot": 0,
        "tle_line1": "1 30646U 99025APD 25360.03877989  .00001048  00000+0  61537-3 0  9998",
        "tle_line2": "2 30646  98.6513  20.0617 0047597 354.3672   5.6958 14.09682790967923"
      },
      "geometry": {
        "type": "Point",
        "coordinates": [
          29.445114236582132,
          -43.4769509160606
        ]
      }
    },
    {
      "type": "Feature",
      "properties": {
        "norad_id": 30647,
        "name": "FENGYUN 1C DEB",
        "group": "fengyun-1c-debris",
        "lat": -29.558842366924534,
        "lon": -60.5182286600415,
        "alt_km": 729.5706381092305,
        "timestamp": "2025-12-27T03:58:44.429210+00:00",
        "meta_object_name": "FENGYUN 1C DEB",
        "meta_object_id": "1999-025APE",
        "meta_epoch": "2025-12-26T18:29:42.228960",
        "meta_mean_motion": 14.56733309,
        "meta_eccentricity": 0.0030254,
        "meta_inclination": 98.99,
        "meta_ra_of_asc_node": 293.9048,
        "meta_arg_of_pericenter": 130.1072,
        "meta_mean_anomaly": 289.0185,
        "meta_ephemeris_type": 0,
        "meta_classification_type": "U",
        "meta_norad_cat_id": 30647,
        "meta_element_set_no": 999,
        "meta_rev_at_epoch": 98193,
        "meta_bstar": 0.0023539,
        "meta_mean_motion_dot": 0.00010549,
        "meta_mean_motion_ddot": 0,
        "tle_line1": "1 30647U 99025APE 25360.77062765  .00010549  00000+0  23539-2 0  9993",
        "tle_line2": "2 30647  98.9900 293.9048 0030254 130.1072 289.0185 14.56733309981934"
      },
      "geometry": {
        "type": "Point",
        "coordinates": [
          -60.5182286600415,
          -29.558842366924534
        ]
      }
    },
    {
      "type": "Feature",
      "properties": {
        "norad_id": 30648,
        "name": "FENGYUN 1C DEB",
        "group": "fengyun-1c-debris",
        "lat": 41.86900453372194,
        "lon": 88.31223553333211,
        "alt_km": 710.0983160116521,
        "timestamp": "2025-12-27T03:58:44.429219+00:00",
        "meta_object_name": "FENGYUN 1C DEB",
        "meta_object_id": "1999-025APF",
        "meta_epoch": "2025-12-26T18:31:49.929024",
        "meta_mean_motion": 14.48323112,
        "meta_eccentricity": 0.0033349,
        "meta_inclination": 98.64,
        "meta_ra_of_asc_node": 95.7423,
        "meta_arg_of_pericenter": 85.9508,
        "meta_mean_anomaly": 65.369,
        "meta_ephemeris_type": 0,
        "meta_classification_type": "U",
        "meta_norad_cat_id": 30648,
        "meta_element_set_no": 999,
        "meta_rev_at_epoch": 98069,
        "meta_bstar": 0.002023,
        "meta_mean_motion_dot": 7.577e-05,
        "meta_mean_motion_ddot": 0,
        "tle_line1": "1 30648U 99025APF 25360.77210566  .00007577  00000+0  20230-2 0  9990",
        "tle_line2": "2 30648  98.6400  95.7423 0033349  85.9508  65.3690 14.48323112980697"
      },
      "geometry": {
        "type": "Point",
        "coordinates": [
          88.31223553333211,
          41.86900453372194
        ]
      }
    },
    {
      "type": "Feature",
      "properties": {
        "norad_id": 30649,
        "name": "FENGYUN 1C DEB",
        "group": "fengyun-1c-debris",
        "lat": -51.763447572530346,
        "lon": 107.98540968408076,
        "alt_km": 836.22031288784,
        "timestamp": "2025-12-27T03:58:44.429228+00:00",
        "meta_object_name": "FENGYUN 1C DEB",
        "meta_object_id": "1999-025APG",
        "meta_epoch": "2025-12-25T05:29:52.058400",
        "meta_mean_motion": 14.2963623,
        "meta_eccentricity": 0.0050854,
        "meta_inclination": 98.8086,
        "meta_ra_of_asc_node": 94.6781,
        "meta_arg_of_pericenter": 136.0066,
        "meta_mean_anomaly": 289.3041,
        "meta_ephemeris_type": 0,
        "meta_classification_type": "U",
        "meta_norad_cat_id": 30649,
        "meta_element_set_no": 999,
        "meta_rev_at_epoch": 97242,
        "meta_bstar": 0.0017878,
        "meta_mean_motion_dot": 4.601e-05,
        "meta_mean_motion_ddot": 0,
        "tle_line1": "1 30649U 99025APG 25359.22907475  .00004601  00000+0  17878-2 0  9990",
        "tle_line2": "2 30649  98.8086  94.6781 0050854 136.0066 289.3041 14.29636230972429"
      },
      "geometry": {
        "type": "Point",
        "coordinates": [
          107.98540968408076,
          -51.763447572530346
        ]
      }
    },
    {
      "type": "Feature",
      "properties": {
        "norad_id": 30650,
        "name": "FENGYUN 1C DEB",
        "group": "fengyun-1c-debris",
        "lat": -36.1274973998945,
        "lon": -144.6179288669457,
        "alt_km": 831.0112250020238,
        "timestamp": "2025-12-27T03:58:44.429237+00:00",
        "meta_object_name": "FENGYUN 1C DEB",
        "meta_object_id": "1999-025APH",
        "meta_epoch": "2025-12-26T14:06:00.660096",
        "meta_mean_motion": 14.14010577,
        "meta_eccentricity": 0.0072241,
        "meta_inclination": 99.2036,
        "meta_ra_of_asc_node": 41.5836,
        "meta_arg_of_pericenter": 151.4266,
        "meta_mean_anomaly": 2.2906,
        "meta_ephemeris_type": 0,
        "meta_classification_type": "U",
        "meta_norad_cat_id": 30650,
        "meta_element_set_no": 999,
        "meta_rev_at_epoch": 96494,
        "meta_bstar": 0.0015229,
        "meta_mean_motion_dot": 2.921e-05,
        "meta_mean_motion_ddot": 0,
        "tle_line1": "1 30650U 99025APH 25360.58750764  .00002921  00000+0  15229-2 0  9991",
        "tle_line2": "2 30650  99.2036  41.5836 0072241 151.4266   2.2906 14.14010577964944"
      },
      "geometry": {
        "type": "Point",
        "coordinates": [
          -144.6179288669457,
          -36.1274973998945
        ]
      }
    },
    {
      "type": "Feature",
      "properties": {
        "norad_id": 30652,
        "name": "FENGYUN 1C DEB",
        "group": "fengyun-1c-debris",
        "lat": -41.49850236431644,
        "lon": 41.767386161830395,
        "alt_km": 874.1433668954396,
        "timestamp": "2025-12-27T03:58:44.429247+00:00",
        "meta_object_name": "FENGYUN 1C DEB",
        "meta_object_id": "1999-025APJ",
        "meta_epoch": "2025-12-26T16:48:37.073376",
        "meta_mean_motion": 14.07809781,
        "meta_eccentricity": 0.0007705,
        "meta_inclination": 98.7838,
        "meta_ra_of_asc_node": 33.4529,
        "meta_arg_of_pericenter": 221.5753,
        "meta_mean_anomaly": 259.124,
        "meta_ephemeris_type": 0,
        "meta_classification_type": "U",
        "meta_norad_cat_id": 30652,
        "meta_element_set_no": 999,
        "meta_rev_at_epoch": 96890,
        "meta_bstar": 0.00017001,
        "meta_mean_motion_dot": 2.45e-06,
        "meta_mean_motion_ddot": 0,
        "tle_line1": "1 30652U 99025APJ 25360.70042909  .00000245  00000+0  17001-3 0  9990",
        "tle_line2": "2 30652  98.7838  33.4529 0007705 221.5753 259.1240 14.07809781968901"
      },
      "geometry": {
        "type": "Point",
        "coordinates": [
          41.767386161830395,
          -41.49850236431644
        ]
      }
    },
    {
      "type": "Feature",
      "properties": {
        "norad_id": 30654,
        "name": "FENGYUN 1C DEB",
        "group": "fengyun-1c-debris",
        "lat": 80.61245760945016,
        "lon": -155.06965708678828,
        "alt_km": 805.3895663128787,
        "timestamp": "2025-12-27T03:58:44.429256+00:00",
        "meta_object_name": "FENGYUN 1C DEB",
        "meta_object_id": "1999-025APL",
        "meta_epoch": "2025-12-26T17:23:57.840000",
        "meta_mean_motion": 14.17157972,
        "meta_eccentricity": 0.0035961,
        "meta_inclination": 99.2427,
        "meta_ra_of_asc_node": 284.5105,
        "meta_arg_of_pericenter": 58.0548,
        "meta_mean_anomaly": 302.4114,
        "meta_ephemeris_type": 0,
        "meta_classification_type": "U",
        "meta_norad_cat_id": 30654,
        "meta_element_set_no": 999,
        "meta_rev_at_epoch": 96878,
        "meta_bstar": 0.0011686,
        "meta_mean_motion_dot": 2.323e-05,
        "meta_mean_motion_ddot": 0,
        "tle_line1": "1 30654U 99025APL 25360.72497500  .00002323  00000+0  11686-2 0  9996",
        "tle_line2": "2 30654  99.2427 284.5105 0035961  58.0548 302.4114 14.17157972968789"
      },
      "geometry": {
        "type": "Point",
        "coordinates": [
          -155.06965708678828,
          80.61245760945016
        ]
      }
    }
  ]
}